{"type": "FeatureCollection", "features": [ {"type": "Feature", "properties": {"norad_id": 34400, "name": "COSMOS 2251 DEB", "group": "cosmos-2251-debris", "lat": 27.810077720503667, "lon": 12.377039850119754, "alt_km": 396.2535087956212, "timestamp": "2025-12-21T14:40:48.312976+00:00", "meta": {"OBJECT_NAME": "COSMOS 2251 DEB", "OBJECT_ID": "1993-036QR", "EPOCH": "2025-12-21T00:40:39.193824", "MEAN_MOTION": 15.56985162, "ECCENTRICITY": 0.00032859, "INCLINATION": 73.9624, "RA_OF_ASC_NODE": 4.9486, "ARG_OF_PERICENTER": 240.2515, "MEAN_ANOMALY": 119.8374, "EPHEMERIS_TYPE": 0, "CLASSIFICATION_TYPE": "U", "NORAD_CAT_ID": 34400, "ELEMENT_SET_NO": 999, "REV_AT_EPOCH": 90103, "BSTAR": 0.0026155724, "MEAN_MOTION_DOT": 0.00193456, "MEAN_MOTION_DDOT": 0}, "tle": {"line1": "1 34400U 93036QR  25355.02823141  .00193456  00000+0  26156-2 0  9992", "line2": "2 34400  73.9624   4.9486 0003285 240.2515 119.8374 15.56985162901036"}}, "geometry": {"type": "Point", "coordinates": [12.377039850119754, 27.810077720503667]}}, {"type": "Feature", "properties": {"norad_id": 34409, "name": "COSMOS 2251 DEB", "group": "cosmos-2251-debris", "lat": 63.928370258811945, "lon": -34.28094266802741, "alt_km": 670.4502730914082, "timestamp": "2025-12-21T14:40:48.312986+00:00", "meta": {"OBJECT_NAME": "COSMOS 2251 DEB", "OBJECT_ID": "1993-036RA", "EPOCH": "2025-12-21T06:49:42.703392", "MEAN_MOTION": 14.58046612, "ECCENTRICITY": 0.00802442, "INCLINATION": 74.0636, "RA_OF_ASC_NODE": 290.6088, "ARG_OF_PERICENTER": 2.6981, "MEAN_ANOMALY": 149.1077, "EPHEMERIS_TYPE": 0, "CLASSIFICATION_TYPE": "U", "NORAD_CAT_ID": 34409, "ELEMENT_SET_NO": 999, "REV_AT_EPOCH": 89317, "BSTAR": 0.00019903716, "MEAN_MOTION_DOT": 9.25e-06, "MEAN_MOTION_DDOT": 0}, "tle": {"line1": "1 34409U 93036RA  25355.28452203  .00000925  00000+0  19904-3 0  9998", "line2": "2 34409  74.0636 290.6088 0080244   2.6981 149.1077 14.58046612893179"}}, "geometry": {"type": "Point", "coordinates": [-34.28094266802741, 63.928370258811945]}}, {"type": "Feature", "properties": {"norad_id": 34410, "name": "COSMOS 2251 DEB", "group": "cosmos-2251-debris", "lat": -72.46676299333217, "lon": 130.34060013804182, "alt_km": 528.5898621833221, "timestamp": "2025-12-21T14:40:48.312996+00:00", "meta": {"OBJECT_NAME": "COSMOS 2251 DEB", "OBJECT_ID": "1993-036RB", "EPOCH": "2025-12-21T03:07:22.254816", "MEAN_MOTION": 15.19644926, "ECCENTRICITY": 0.00215598, "INCLINATION": 73.7371, "RA_OF_ASC_NODE": 243.8514, "ARG_OF_PERICENTER": 83.8123, "MEAN_ANOMALY": 66.2153, "EPHEMERIS_TYPE": 0, "CLASSIFICATION_TYPE": "U", "NORAD_CAT_ID": 34410, "ELEMENT_SET_NO": 999, "REV_AT_EPOCH": 89901, "BSTAR": 0.0014959245, "MEAN_MOTION_DOT": 0.00032197, "MEAN_MOTION_DDOT": 0}, "tle": {"line1": "1 34410U 93036RB  25355.13011869  .00032197  00000+0  14959-2 0  9993", "line2": "2 34410  73.7371 243.8514 0021559  83.8123  66.2153 15.19644926899013"}}, "geometry": {"type": "Point", "coordinates": [130.34060013804182, -72.46676299333217]}}, {"type": "Feature", "properties": {"norad_id": 34412, "name": "COSMOS 2251 DEB", "group": "cosmos-2251-debris", "lat": -64.69041494111484, "lon": -89.5802356931843, "alt_km": 787.349276321178, "timestamp": "2025-12-21T14:40:48.313006+00:00", "meta": {"OBJECT_NAME": "COSMOS 2251 DEB", "OBJECT_ID": "1993-036RD", "EPOCH": "2025-12-21T03:23:16.732032", "MEAN_MOTION": 14.47226371, "ECCENTRICITY": 0.01875427, "INCLINATION": 73.9483, "RA_OF_ASC_NODE": 308.8082, "ARG_OF_PERICENTER": 41.9335, "MEAN_ANOMALY": 319.601, "EPHEMERIS_TYPE": 0, "CLASSIFICATION_TYPE": "U", "NORAD_CAT_ID": 34412, "ELEMENT_SET_NO": 999, "REV_AT_EPOCH": 87772, "BSTAR": 0.0010603868, "MEAN_MOTION_DOT": 4.805e-05, "MEAN_MOTION_DDOT": 0}, "tle": {"line1": "1 34412U 93036RD  25355.14116588  .00004805  00000+0  10604-2 0  9998", "line2": "2 34412  73.9483 308.8082 0187542  41.9335 319.6010 14.47226371877729"}}, "geometry": {"type": "Point", "coordinates": [-89.5802356931843, -64.69041494111484]}}, {"type": "Feature", "properties": {"norad_id": 34413, "name": "COSMOS 2251 DEB", "group": "cosmos-2251-debris", "lat": -25.60635319449981, "lon": 76.65357702181265, "alt_km": 828.8200512676049, "timestamp": "2025-12-21T14:40:48.313017+00:00", "meta": {"OBJECT_NAME": "COSMOS 2251 DEB", "OBJECT_ID": "1993-036RE", "EPOCH": "2025-12-19T03:37:01.824384", "MEAN_MOTION": 14.29145308, "ECCENTRICITY": 0.00909812, "INCLINATION": 74.0307, "RA_OF_ASC_NODE": 253.2338, "ARG_OF_PERICENTER": 328.5293, "MEAN_ANOMALY": 182.5817, "EPHEMERIS_TYPE": 0, "CLASSIFICATION_TYPE": "U", "NORAD_CAT_ID": 34413, "ELEMENT_SET_NO": 999, "REV_AT_EPOCH": 87222, "BSTAR": 0.0011272931, "MEAN_MOTION_DOT": 2.965e-05, "MEAN_MOTION_DDOT": 0}, "tle": {"line1": "1 34413U 93036RE  25353.15071556  .00002965  00000+0  11273-2 0  9991", "line2": "2 34413  74.0307 253.2338 0090981 328.5293 182.5817 14.29145308872223"}}, "geometry": {"type": "Point", "coordinates": [76.65357702181265, -25.60635319449981]}}, {"type": "Feature", "properties": {"norad_id": 34420, "name": "COSMOS 2251 DEB", "group": "cosmos-2251-debris", "lat": 65.06298327160025, "lon": -131.20782141236216, "alt_km": 667.3692863086599, "timestamp": "2025-12-21T14:40:48.313027+00:00", "meta": {"OBJECT_NAME": "COSMOS 2251 DEB", "OBJECT_ID": "1993-036RM", "EPOCH": "2025-12-21T06:08:29.595840", "MEAN_MOTION": 14.68320942, "ECCENTRICITY": 0.0106269, "INCLINATION": 74.0334, "RA_OF_ASC_NODE": 87.4865, "ARG_OF_PERICENTER": 206.6072, "MEAN_ANOMALY": 184.1547, "EPHEMERIS_TYPE": 0, "CLASSIFICATION_TYPE": "U", "NORAD_CAT_ID": 34420, "ELEMENT_SET_NO": 999, "REV_AT_EPOCH": 89895, "BSTAR": 0.00017967386, "MEAN_MOTION_DOT": 1.094e-05, "MEAN_MOTION_DDOT": 0}, "tle": {"line1": "1 34420U 93036RM  25355.25589810  .00001094  00000+0  17967-3 0  9998", "line2": "2 34420  74.0334  87.4865 0106269 206.6072 184.1547 14.68320942898959"}}, "geometry": {"type": "Point", "coordinates": [-131.20782141236216, 65.06298327160025]}}, {"type": "Feature", "properties": {"norad_id": 34425, "name": "COSMOS 2251 DEB", "group": "cosmos-2251-debris", "lat": 1.2538048745828332, "lon": 37.870532782957206, "alt_km": 704.8178302450851, "timestamp": "2025-12-21T14:40:48.313037+00:00", "meta": {"OBJECT_NAME": "COSMOS 2251 DEB", "OBJECT_ID": "1993-036RS", "EPOCH": "2025-12-21T06:27:49.476096", "MEAN_MOTION": 14.62170319, "ECCENTRICITY": 0.00243477, "INCLINATION": 74.0185, "RA_OF_ASC_NODE": 38.1671, "ARG_OF_PERICENTER": 162.2654, "MEAN_ANOMALY": 197.9368, "EPHEMERIS_TYPE": 0, "CLASSIFICATION_TYPE": "U", "NORAD_CAT_ID": 34425, "ELEMENT_SET_NO": 999, "REV_AT_EPOCH": 88865, "BSTAR": 0.0003868685, "MEAN_MOTION_DOT": 1.925e-05, "MEAN_MOTION_DDOT": 0}, "tle": {"line1": "1 34425U 93036RS  25355.26932264  .00001925  00000+0  38687-3 0  9994", "line2": "2 34425  74.0185  38.1671 0024347 162.2654 197.9368 14.62170319888659"}}, "geometry": {"type": "Point", "coordinates": [37.870532782957206, 1.2538048745828332]}}, {"type": "Feature", "properties": {"norad_id": 34429, "name": "COSMOS 2251 DEB", "group": "cosmos-2251-debris", "lat": 46.777764415451834, "lon": -49.156812749127766, "alt_km": 433.2543944014369, "timestamp": "2025-12-21T14:40:48.313047+00:00", "meta": {"OBJECT_NAME": "COSMOS 2251 DEB", "OBJECT_ID": "1993-036RW", "EPOCH": "2025-12-20T20:00:10.981152", "MEAN_MOTION": 15.44752512, "ECCENTRICITY": 0.0011396, "INCLINATION": 73.9661, "RA_OF_ASC_NODE": 150.363, "ARG_OF_PERICENTER": 348.0303, "MEAN_ANOMALY": 136.3512, "EPHEMERIS_TYPE": 0, "CLASSIFICATION_TYPE": "U", "NORAD_CAT_ID": 34429, "ELEMENT_SET_NO": 999, "REV_AT_EPOCH": 89573, "BSTAR": 0.0035052987, "MEAN_MOTION_DOT": 0.00167902, "MEAN_MOTION_DDOT": 0}, "tle": {"line1": "1 34429U 93036RW  25354.83346043  .00167902  00000+0  35053-2 0  9995", "line2": "2 34429  73.9661 150.3630 0011396 348.0303 136.3512 15.44752512895734"}}, "geometry": {"type": "Point", "coordinates": [-49.156812749127766, 46.777764415451834]}}, {"type": "Feature", "properties": {"norad_id": 34430, "name": "COSMOS 2251 DEB", "group": "cosmos-2251-debris", "lat": 33.26462673930598, "lon": 96.18129277288645, "alt_km": 794.9259423411031, "timestamp": "2025-12-21T14:40:48.313058+00:00", "meta": {"OBJECT_NAME": "COSMOS 2251 DEB", "OBJECT_ID": "1993-036RX", "EPOCH": "2025-12-21T02:20:07.715328", "MEAN_MOTION": 14.3965526, "ECCENTRICITY": 0.00607394, "INCLINATION": 74.0518, "RA_OF_ASC_NODE": 287.9417, "ARG_OF_PERICENTER": 355.6239, "MEAN_ANOMALY": 4.4376, "EPHEMERIS_TYPE": 0, "CLASSIFICATION_TYPE": "U", "NORAD_CAT_ID": 34430, "ELEMENT_SET_NO": 999, "REV_AT_EPOCH": 88075, "BSTAR": 0.00032660171, "MEAN_MOTION_DOT": 1.017e-05, "MEAN_MOTION_DDOT": 0}, "tle": {"line1": "1 34430U 93036RX  25355.09731152  .00001017  00000+0  32660-3 0  9991", "line2": "2 34430  74.0518 287.9417 0060739 355.6239   4.4376 14.39655260880750"}}, "geometry": {"type": "Point", "coordinates": [96.18129277288645, 33.26462673930598]}}, {"type": "Feature", "properties": {"norad_id": 34431, "name": "COSMOS 2251 DEB", "group": "cosmos-2251-debris", "lat": 55.75823286565354, "lon": -176.05667703251615, "alt_km": 783.9255026695528, "timestamp": "2025-12-21T14:40:48.313068+00:00", "meta": {"OBJECT_NAME": "COSMOS 2251 DEB", "OBJECT_ID": "1993-036RY", "EPOCH": "2025-12-20T13:11:45.896064", "MEAN_MOTION": 14.28798339, "ECCENTRICITY": 0.0067992, "INCLINATION": 74.0738, "RA_OF_ASC_NODE": 161.0622, "ARG_OF_PERICENTER": 144.678, "MEAN_ANOMALY": 215.8903, "EPHEMERIS_TYPE": 0, "CLASSIFICATION_TYPE": "U", "NORAD_CAT_ID": 34431, "ELEMENT_SET_NO": 999, "REV_AT_EPOCH": 87254, "BSTAR": 0.00048502, "MEAN_MOTION_DOT": 1.228e-05, "MEAN_MOTION_DDOT": 0}, "tle": {"line1": "1 34431U 93036RY  25354.54983676  .00001228  00000+0  48502-3 0  9997", "line2": "2 34431  74.0738 161.0622 0067992 144.6780 215.8903 14.28798339872545"}}, "geometry": {"type": "Point", "coordinates": [-176.05667703251615, 55.75823286565354]}}]}